[{"OBJECT_NAME":"SL-8 R/B","OBJECT_ID":"1979-089B","EPOCH":"2026-03-27T08:42:20.382624","MEAN_MOTION":14.42360871,"ECCENTRICITY":0.0016808,"INCLINATION":74.0683,"RA_OF_ASC_NODE":58.3251,"ARG_OF_PERICENTER":228.8058,"MEAN_ANOMALY":131.165,"EPHEMERIS_TYPE":0,"CLASSIFICATION_TYPE":"U","NORAD_CAT_ID":11574,"ELEMENT_SET_NO":999,"REV_AT_EPOCH":43865,"BSTAR":9.5069e-5,"MEAN_MOTION_DOT":2.88e-6,"MEAN_MOTION_DDOT":0},{"OBJECT_NAME":"SL-14 R/B","OBJECT_ID":"1980-005B","EPOCH":"2026-03-27T20:21:35.197920","MEAN_MOTION":14.90950195,"ECCENTRICITY":0.0017213,"INCLINATION":82.5114,"RA_OF_ASC_NODE":290.0076,"ARG_OF_PERICENTER":101.827,"MEAN_ANOMALY":258.4881,"EPHEMERIS_TYPE":0,"CLASSIFICATION_TYPE":"U","NORAD_CAT_ID":11672,"ELEMENT_SET_NO":999,"REV_AT_EPOCH":47919,"BSTAR":5.3994e-5,"MEAN_MOTION_DOT":5.6e-6,"MEAN_MOTION_DDOT":0},{"OBJECT_NAME":"SL-8 R/B","OBJECT_ID":"1981-003B","EPOCH":"2026-03-27T13:06:45.236160","MEAN_MOTION":15.11745131,"ECCENTRICITY":0.0260952,"INCLINATION":82.9338,"RA_OF_ASC_NODE":273.502,"ARG_OF_PERICENTER":116.4931,"MEAN_ANOMALY":246.3319,"EPHEMERIS_TYPE":0,"CLASSIFICATION_TYPE":"U","NORAD_CAT_ID":12139,"ELEMENT_SET_NO":999,"REV_AT_EPOCH":31737,"BSTAR":0.00056584,"MEAN_MOTION_DOT":0.00022551,"MEAN_MOTION_DDOT":0},{"OBJECT_NAME":"SL-3 R/B","OBJECT_ID":"1981-046B","EPOCH":"2026-03-27T19:43:17.591232","MEAN_MOTION":15.42427312,"ECCENTRICITY":0.0018268,"INCLINATION":81.2285,"RA_OF_ASC_NODE":267.9599,"ARG_OF_PERICENTER":318.1479,"MEAN_ANOMALY":41.8366,"EPHEMERIS_TYPE":0,"CLASSIFICATION_TYPE":"U","NORAD_CAT_ID":12465,"ELEMENT_SET_NO":999,"REV_AT_EPOCH":44122,"BSTAR":0.00026928,"MEAN_MOTION_DOT":0.00011744,"MEAN_MOTION_DDOT":0},{"OBJECT_NAME":"SL-3 R/B","OBJECT_ID":"1981-103B","EPOCH":"2026-03-27T19:00:38.417184","MEAN_MOTION":15.21584384,"ECCENTRICITY":0.0012699,"INCLINATION":81.1604,"RA_OF_ASC_NODE":192.1971,"ARG_OF_PERICENTER":221.6352,"MEAN_ANOMALY":138.3913,"EPHEMERIS_TYPE":0,"CLASSIFICATION_TYPE":"U","NORAD_CAT_ID":12904,"ELEMENT_SET_NO":999,"REV_AT_EPOCH":97598,"BSTAR":0.00022117,"MEAN_MOTION_DOT":5.022e-5,"MEAN_MOTION_DDOT":0},{"OBJECT_NAME":"SL-3 R/B","OBJECT_ID":"1982-013B","EPOCH":"2026-03-27T20:36:25.822944","MEAN_MOTION":15.22175888,"ECCENTRICITY":0.0023462,"INCLINATION":81.174,"RA_OF_ASC_NODE":139.4747,"ARG_OF_PERICENTER":117.7874,"MEAN_ANOMALY":242.5741,"EPHEMERIS_TYPE":0,"CLASSIFICATION_TYPE":"U","NORAD_CAT_ID":13068,"ELEMENT_SET_NO":999,"REV_AT_EPOCH":40711,"BSTAR":0.0001442,"MEAN_MOTION_DOT":3.36e-5,"MEAN_MOTION_DDOT":0},{"OBJECT_NAME":"SL-3 R/B","OBJECT_ID":"1982-039B","EPOCH":"2026-03-27T19:29:13.519392","MEAN_MOTION":15.10179186,"ECCENTRICITY":0.0028696,"INCLINATION":81.1568,"RA_OF_ASC_NODE":195.0663,"ARG_OF_PERICENTER":264.5895,"MEAN_ANOMALY":95.2056,"EPHEMERIS_TYPE":0,"CLASSIFICATION_TYPE":"U","NORAD_CAT_ID":13154,"ELEMENT_SET_NO":999,"REV_AT_EPOCH":38437,"BSTAR":0.00015885,"MEAN_MOTION_DOT":2.64e-5,"MEAN_MOTION_DDOT":0},{"OBJECT_NAME":"SL-3 R/B","OBJECT_ID":"1982-079B","EPOCH":"2026-03-27T18:39:21.995424","MEAN_MOTION":15.25036919,"ECCENTRICITY":0.0025527,"INCLINATION":81.1483,"RA_OF_ASC_NODE":171.7207,"ARG_OF_PERICENTER":105.2749,"MEAN_ANOMALY":255.1309,"EPHEMERIS_TYPE":0,"CLASSIFICATION_TYPE":"U","NORAD_CAT_ID":13403,"ELEMENT_SET_NO":999,"REV_AT_EPOCH":38045,"BSTAR":0.00023596,"MEAN_MOTION_DOT":5.975e-5,"MEAN_MOTION_DDOT":0},{"OBJECT_NAME":"SL-14 R/B","OBJECT_ID":"1982-092B","EPOCH":"2026-03-27T20:05:17.986272","MEAN_MOTION":14.86682242,"ECCENTRICITY":0.0018993,"INCLINATION":82.566,"RA_OF_ASC_NODE":124.4231,"ARG_OF_PERICENTER":238.6575,"MEAN_ANOMALY":294.1377,"EPHEMERIS_TYPE":0,"CLASSIFICATION_TYPE":"U","NORAD_CAT_ID":13553,"ELEMENT_SET_NO":999,"REV_AT_EPOCH":33162,"BSTAR":4.3301e-5,"MEAN_MOTION_DOT":4.1e-6,"MEAN_MOTION_DDOT":0},{"OBJECT_NAME":"SL-3 R/B","OBJECT_ID":"1983-010B","EPOCH":"2026-03-27T19:27:54.121248","MEAN_MOTION":15.46955675,"ECCENTRICITY":0.0016098,"INCLINATION":81.1058,"RA_OF_ASC_NODE":340.0223,"ARG_OF_PERICENTER":349.4554,"MEAN_ANOMALY":10.635,"EPHEMERIS_TYPE":0,"CLASSIFICATION_TYPE":"U","NORAD_CAT_ID":13819,"ELEMENT_SET_NO":999,"REV_AT_EPOCH":36074,"BSTAR":0.00027986,"MEAN_MOTION_DOT":0.00014212,"MEAN_MOTION_DDOT":0},{"OBJECT_NAME":"SL-3 R/B","OBJECT_ID":"1983-075B","EPOCH":"2026-03-27T19:57:54.858816","MEAN_MOTION":15.38832987,"ECCENTRICITY":0.0022146,"INCLINATION":97.6143,"RA_OF_ASC_NODE":92.1021,"ARG_OF_PERICENTER":159.851,"MEAN_ANOMALY":200.3614,"EPHEMERIS_TYPE":0,"CLASSIFICATION_TYPE":"U","NORAD_CAT_ID":14208,"ELEMENT_SET_NO":999,"REV_AT_EPOCH":33294,"BSTAR":0.00028988,"MEAN_MOTION_DOT":0.0001114,"MEAN_MOTION_DDOT":0},{"OBJECT_NAME":"COSMOS 1536","OBJECT_ID":"1984-013A","EPOCH":"2026-03-27T18:38:32.893440","MEAN_MOTION":15.2406105,"ECCENTRICITY":0.0013206,"INCLINATION":82.5416,"RA_OF_ASC_NODE":89.8629,"ARG_OF_PERICENTER":211.9393,"MEAN_ANOMALY":148.1045,"EPHEMERIS_TYPE":0,"CLASSIFICATION_TYPE":"U","NORAD_CAT_ID":14699,"ELEMENT_SET_NO":999,"REV_AT_EPOCH":27537,"BSTAR":0.00024348,"MEAN_MOTION_DOT":5.952e-5,"MEAN_MOTION_DDOT":0},{"OBJECT_NAME":"SL-14 R/B","OBJECT_ID":"1984-027B","EPOCH":"2026-03-27T19:21:47.479392","MEAN_MOTION":14.85994852,"ECCENTRICITY":0.0016482,"INCLINATION":82.5416,"RA_OF_ASC_NODE":228.0192,"ARG_OF_PERICENTER":273.7895,"MEAN_ANOMALY":86.1436,"EPHEMERIS_TYPE":0,"CLASSIFICATION_TYPE":"U","NORAD_CAT_ID":14820,"ELEMENT_SET_NO":999,"REV_AT_EPOCH":25032,"BSTAR":5.9745e-5,"MEAN_MOTION_DOT":5.47e-6,"MEAN_MOTION_DDOT":0},{"OBJECT_NAME":"SL-8 R/B","OBJECT_ID":"1985-006B","EPOCH":"2026-03-27T20:03:31.994208","MEAN_MOTION":14.37795997,"ECCENTRICITY":0.0017716,"INCLINATION":74.045,"RA_OF_ASC_NODE":227.7553,"ARG_OF_PERICENTER":140.3973,"MEAN_ANOMALY":11.9798,"EPHEMERIS_TYPE":0,"CLASSIFICATION_TYPE":"U","NORAD_CAT_ID":15483,"ELEMENT_SET_NO":999,"REV_AT_EPOCH":15663,"BSTAR":0.00011,"MEAN_MOTION_DOT":3.06e-6,"MEAN_MOTION_DDOT":0},{"OBJECT_NAME":"SL-12 R/B(2)","OBJECT_ID":"1985-042D","EPOCH":"2026-03-27T15:41:44.337696","MEAN_MOTION":14.21987316,"ECCENTRICITY":0.0032861,"INCLINATION":71.1083,"RA_OF_ASC_NODE":49.7722,"ARG_OF_PERICENTER":98.3616,"MEAN_ANOMALY":73.6899,"EPHEMERIS_TYPE":0,"CLASSIFICATION_TYPE":"U","NORAD_CAT_ID":15772,"ELEMENT_SET_NO":999,"REV_AT_EPOCH":11694,"BSTAR":4.498e-5,"MEAN_MOTION_DOT":5.2e-7,"MEAN_MOTION_DDOT":0},{"OBJECT_NAME":"SL-14 R/B","OBJECT_ID":"1985-069B","EPOCH":"2026-03-27T20:28:52.515840","MEAN_MOTION":14.86452384,"ECCENTRICITY":0.0019977,"INCLINATION":82.5305,"RA_OF_ASC_NODE":7.858,"ARG_OF_PERICENTER":129.1305,"MEAN_ANOMALY":231.1692,"EPHEMERIS_TYPE":0,"CLASSIFICATION_TYPE":"U","NORAD_CAT_ID":15945,"ELEMENT_SET_NO":999,"REV_AT_EPOCH":17553,"BSTAR":5.4043e-5,"MEAN_MOTION_DOT":5.04e-6,"MEAN_MOTION_DDOT":0},{"OBJECT_NAME":"SL-16 R/B","OBJECT_ID":"1985-097B","EPOCH":"2026-03-27T19:16:05.947104","MEAN_MOTION":14.16603547,"ECCENTRICITY":0.0009477,"INCLINATION":71.0008,"RA_OF_ASC_NODE":102.4191,"ARG_OF_PERICENTER":238.6472,"MEAN_ANOMALY":293.8767,"EPHEMERIS_TYPE":0,"CLASSIFICATION_TYPE":"U","NORAD_CAT_ID":16182,"ELEMENT_SET_NO":999,"REV_AT_EPOCH":8979,"BSTAR":9.6799e-6,"MEAN_MOTION_DOT":-2.9e-7,"MEAN_MOTION_DDOT":0}]
